<?xml version="1.0" encoding="UTF-8"?>
<kml xmlns="http://www.opengis.net/kml/2.2">
  <Document>
    <name>D I Yogyakarta</name>
    <Style id="poly-000000-1200-77-nodesc-normal">
      <LineStyle>
        <color>ff000000</color>
        <width>1.2</width>
      </LineStyle>
      <PolyStyle>
        <color>4d000000</color>
        <fill>1</fill>
        <outline>1</outline>
      </PolyStyle>
      <BalloonStyle>
        <text><![CDATA[<h3>$[name]</h3>]]></text>
      </BalloonStyle>
    </Style>
    <Style id="poly-000000-1200-77-nodesc-highlight">
      <LineStyle>
        <color>ff000000</color>
        <width>1.8</width>
      </LineStyle>
      <PolyStyle>
        <color>4d000000</color>
        <fill>1</fill>
        <outline>1</outline>
      </PolyStyle>
      <BalloonStyle>
        <text><![CDATA[<h3>$[name]</h3>]]></text>
      </BalloonStyle>
    </Style>
    <StyleMap id="poly-000000-1200-77-nodesc">
      <Pair>
        <key>normal</key>
        <styleUrl>#poly-000000-1200-77-nodesc-normal</styleUrl>
      </Pair>
      <Pair>
        <key>highlight</key>
        <styleUrl>#poly-000000-1200-77-nodesc-highlight</styleUrl>
      </Pair>
    </StyleMap>
    <Placemark>
      <name>D I Yogyakarta</name>
      <styleUrl>#poly-000000-1200-77-nodesc</styleUrl>
      <Polygon>
        <outerBoundaryIs>
          <LinearRing>
            <tessellate>1</tessellate>
            <coordinates>
              110.0177933,-7.8852276,0
              110.1386429,-7.9450768,0
              110.1661087,-7.9586776,0
              110.1935746,-7.9777181,0
              110.2251602,-7.9940378,0
              110.2649857,-8.0049172,0
              110.2965714,-8.0103568,0
              110.3377701,-8.0266752,0
              110.3501297,-8.0402733,0
              110.3666092,-8.0620294,0
              110.407808,-8.0824246,0
              110.4407669,-8.1000997,0
              110.4764725,-8.1123358,0
              110.5162979,-8.1259311,0
              110.5629898,-8.1408853,0
              110.6000687,-8.1476826,0
              110.6302811,-8.1653547,0
              110.676973,-8.1843854,0
              110.7003189,-8.1952597,0
              110.7167984,-8.1979783,0
              110.7415177,-8.1979783,0
              110.7758499,-8.1898226,0
              110.8033158,-8.1993375,0
              110.8266617,-8.2061337,0
              110.8335282,-8.1762295,0
              110.8211686,-8.1463231,0
              110.8033158,-8.1599172,0
              110.7895829,-8.1517608,0
              110.7868363,-8.117774,0
              110.7868363,-8.0892228,0
              110.7744767,-8.0593099,0
              110.7593705,-8.0361939,0
              110.7593705,-8.0117167,0
              110.7676102,-7.9885979,0
              110.7703568,-7.9559575,0
              110.7703568,-7.9328356,0
              110.7703568,-7.9056317,0
              110.7744767,-7.8838673,0
              110.7895829,-7.8566602,0
              110.7868363,-7.8212883,0
              110.7676102,-7.8076829,0
              110.7593705,-7.8267303,0
              110.7442643,-7.8076829,0
              110.7209183,-7.7913559,0
              110.7016922,-7.8036012,0
              110.6824662,-7.8049618,0
              110.6742264,-7.787274,0
              110.6618668,-7.7995195,0
              110.6412674,-7.7995195,0
              110.6165482,-7.8036012,0
              110.5877091,-7.8022406,0
              110.5698563,-7.7845528,0
              110.5410172,-7.7954377,0
              110.5176712,-7.7845528,0
              110.4970719,-7.7682248,0
              110.4915787,-7.753257,0
              110.4902054,-7.7328454,0
              110.4860855,-7.7137938,0
              110.4792191,-7.6879366,0
              110.4723526,-7.6593557,0
              110.4696061,-7.6334952,0
              110.4641129,-7.6049107,0
              110.4627396,-7.5695177,0
              110.4517533,-7.5463746,0
              110.4352738,-7.5382062,0
              110.4133011,-7.5640724,0
              110.3981949,-7.5912984,0
              110.3721024,-7.6089943,0
              110.3528763,-7.6185226,0
              110.3309037,-7.6321341,0
              110.3061844,-7.6579947,0
              110.2869583,-7.6852147,0
              110.2691056,-7.7001849,0
              110.266359,-7.6784098,0
              110.2636124,-7.6566336,0
              110.2539994,-7.644384,0
              110.2361466,-7.6498283,0
              110.2059342,-7.6484673,0
              110.1853348,-7.644384,0
              110.1523758,-7.6457451,0
              110.1317765,-7.6511894,0
              110.1207901,-7.6729659,0
              110.1331498,-7.6865756,0
              110.1290299,-7.7001849,0
              110.1304032,-7.7301238,0
              110.1207901,-7.7600606,0
              110.1029373,-7.7763889,0
              110.0837113,-7.7967983,0
              110.0631119,-7.8131251,0
              110.0562455,-7.8335328,0
              110.049379,-7.8471373,0
              110.0438858,-7.8689036,0
              110.0177933,-7.8852276,0
            </coordinates>
          </LinearRing>
        </outerBoundaryIs>
      </Polygon>
    </Placemark>
  </Document>
</kml>
