<?xml version="1.0" encoding="UTF-8"?>
<kml xmlns="http://www.opengis.net/kml/2.2">
  <Document>
    <name>DKI Jakarta</name>
    <Style id="poly-000000-1200-77-nodesc-normal">
      <LineStyle>
        <color>ff000000</color>
        <width>1.2</width>
      </LineStyle>
      <PolyStyle>
        <color>4d000000</color>
        <fill>1</fill>
        <outline>1</outline>
      </PolyStyle>
      <BalloonStyle>
        <text><![CDATA[<h3>$[name]</h3>]]></text>
      </BalloonStyle>
    </Style>
    <Style id="poly-000000-1200-77-nodesc-highlight">
      <LineStyle>
        <color>ff000000</color>
        <width>1.8</width>
      </LineStyle>
      <PolyStyle>
        <color>4d000000</color>
        <fill>1</fill>
        <outline>1</outline>
      </PolyStyle>
      <BalloonStyle>
        <text><![CDATA[<h3>$[name]</h3>]]></text>
      </BalloonStyle>
    </Style>
    <StyleMap id="poly-000000-1200-77-nodesc">
      <Pair>
        <key>normal</key>
        <styleUrl>#poly-000000-1200-77-nodesc-normal</styleUrl>
      </Pair>
      <Pair>
        <key>highlight</key>
        <styleUrl>#poly-000000-1200-77-nodesc-highlight</styleUrl>
      </Pair>
    </StyleMap>
    <Placemark>
      <name>DKI Jakarta</name>
      <styleUrl>#poly-000000-1200-77-nodesc</styleUrl>
      <Polygon>
        <outerBoundaryIs>
          <LinearRing>
            <tessellate>1</tessellate>
            <coordinates>
              106.7230879,-6.0884116,0
              106.7169081,-6.0911427,0
              106.7072951,-6.0938738,0
              106.6963088,-6.0952393,0
              106.6866957,-6.0972876,0
              106.688069,-6.1068462,0
              106.6969954,-6.1102599,0
              106.6887557,-6.1211837,0
              106.6860091,-6.1314246,0
              106.6894423,-6.1389344,0
              106.688069,-6.1491749,0
              106.6873824,-6.1614633,0
              106.6901289,-6.1717034,0
              106.7024886,-6.1778473,0
              106.7182814,-6.1880871,0
              106.7230879,-6.197644,0
              106.7162215,-6.2249486,0
              106.7388808,-6.2222182,0
              106.7464339,-6.2345049,0
              106.7478072,-6.2426958,0
              106.7498671,-6.2515692,0
              106.7526137,-6.2631727,0
              106.7526137,-6.2747758,0
              106.7629134,-6.2802361,0
              106.76566,-6.2904738,0
              106.7725264,-6.2972989,0
              106.7738997,-6.3082188,0
              106.7800795,-6.3177736,0
              106.8075453,-6.3143612,0
              106.8041121,-6.3293755,0
              106.7972456,-6.3450719,0
              106.7924391,-6.3587205,0
              106.8027388,-6.3655446,0
              106.817845,-6.3587205,0
              106.8288313,-6.3553084,0
              106.8398177,-6.3478016,0
              106.8363844,-6.3416597,0
              106.8494307,-6.3368825,0
              106.8542372,-6.3443894,0
              106.8576704,-6.3525786,0
              106.8652235,-6.358038,0
              106.8714034,-6.3553084,0
              106.881703,-6.3621326,0
              106.8871962,-6.3696391,0
              106.8988692,-6.3689567,0
              106.9064223,-6.3587205,0
              106.9139754,-6.3634974,0
              106.9160353,-6.3532611,0
              106.9180953,-6.3423421,0
              106.9194685,-6.3334703,0
              106.9208418,-6.3205035,0
              106.9215285,-6.3068538,0
              106.9139754,-6.2979814,0
              106.9091689,-6.2856962,0
              106.9077956,-6.2693155,0
              106.905049,-6.2590774,0
              106.914662,-6.2563471,0
              106.9194685,-6.2529344,0
              106.9283949,-6.2522518,0
              106.9421278,-6.2522518,0
              106.9448744,-6.2372352,0
              106.947621,-6.227679,0
              106.9558608,-6.214027,0
              106.9634139,-6.2112965,0
              106.9682204,-6.197644,0
              106.9723402,-6.180578,0
              106.9716536,-6.1635113,0
              106.9695937,-6.1034324,0
              106.9682204,-6.0911427,0
              106.9256484,-6.0966048,0
              106.9256484,-6.0788527,0
              106.8988692,-6.0802183,0
              106.9009291,-6.0911427,0
              106.9174086,-6.0911427,0
              106.916722,-6.0966048,0
              106.8748366,-6.0938738,0
              106.8762099,-6.1041152,0
              106.862477,-6.1095772,0
              106.8535506,-6.1095772,0
              106.8556105,-6.1157218,0
              106.8308913,-6.120501,0
              106.8281447,-6.1157218,0
              106.8171584,-6.1129909,0
              106.8116652,-6.1184528,0
              106.8054854,-6.0925082,0
              106.7890059,-6.0925082,0
              106.7883193,-6.1041152,0
              106.7787062,-6.1034324,0
              106.7663466,-6.0966048,0
              106.7567336,-6.1027497,0
              106.7512404,-6.0959221,0
              106.7581069,-6.0774872,0
              106.7498671,-6.0733904,0
              106.7430006,-6.0856805,0
              106.7333876,-6.0788527,0
              106.7230879,-6.0884116,0
            </coordinates>
          </LinearRing>
        </outerBoundaryIs>
      </Polygon>
    </Placemark>
  </Document>
</kml>
