<?xml version="1.0" encoding="UTF-8"?>
<kml xmlns="http://www.opengis.net/kml/2.2">
  <Document>
    <name>Kota Depok</name>
    <Style id="poly-000000-1200-77-nodesc-normal">
      <LineStyle>
        <color>ff000000</color>
        <width>1.2</width>
      </LineStyle>
      <PolyStyle>
        <color>4d000000</color>
        <fill>1</fill>
        <outline>1</outline>
      </PolyStyle>
      <BalloonStyle>
        <text><![CDATA[<h3>$[name]</h3>]]></text>
      </BalloonStyle>
    </Style>
    <Style id="poly-000000-1200-77-nodesc-highlight">
      <LineStyle>
        <color>ff000000</color>
        <width>1.8</width>
      </LineStyle>
      <PolyStyle>
        <color>4d000000</color>
        <fill>1</fill>
        <outline>1</outline>
      </PolyStyle>
      <BalloonStyle>
        <text><![CDATA[<h3>$[name]</h3>]]></text>
      </BalloonStyle>
    </Style>
    <StyleMap id="poly-000000-1200-77-nodesc">
      <Pair>
        <key>normal</key>
        <styleUrl>#poly-000000-1200-77-nodesc-normal</styleUrl>
      </Pair>
      <Pair>
        <key>highlight</key>
        <styleUrl>#poly-000000-1200-77-nodesc-highlight</styleUrl>
      </Pair>
    </StyleMap>
    <Placemark>
      <name>Kota Depok, Jawa Barat</name>
      <styleUrl>#poly-000000-1200-77-nodesc</styleUrl>
      <Polygon>
        <outerBoundaryIs>
          <LinearRing>
            <tessellate>1</tessellate>
            <coordinates>
              106.7168621,-6.3612412,0
              106.7230419,-6.3735246,0
              106.7271617,-6.3844429,0
              106.7312816,-6.3939962,0
              106.7374614,-6.4042317,0
              106.7319683,-6.4253845,0
              106.7340282,-6.436984,0
              106.7312816,-6.4567708,0
              106.7683605,-6.4751923,0
              106.78278,-6.4806504,0
              106.7889598,-6.4751923,0
              106.7985729,-6.4717809,0
              106.8026927,-6.4765568,0
              106.7992595,-6.4874729,0
              106.8445781,-6.4936131,0
              106.8459514,-6.4779213,0
              106.8576244,-6.467005,0
              106.8631175,-6.4540416,0
              106.8754772,-6.4438071,0
              106.8850902,-6.4322077,0
              106.8898967,-6.4240198,0
              106.8967632,-6.4151494,0
              106.9050029,-6.4096906,0
              106.9104961,-6.3905843,0
              106.9187358,-6.3687477,0
              106.9139754,-6.3634974,0
              106.9064223,-6.3587205,0
              106.8988692,-6.3689567,0
              106.8871962,-6.3696391,0
              106.8837169,-6.374207,0
              106.881703,-6.3621326,0
              106.8714034,-6.3553084,0
              106.8576704,-6.3525786,0
              106.8494307,-6.3368825,0
              106.8363844,-6.3416597,0
              106.8398177,-6.3478016,0
              106.8349651,-6.3578291,0
              106.817845,-6.3587205,0
              106.8088726,-6.3632885,0
              106.7937664,-6.3660181,0
              106.7923931,-6.3503224,0
              106.8020061,-6.3414507,0
              106.8041121,-6.3293755,0
              106.8075453,-6.3143612,0
              106.7910198,-6.3161997,0
              106.7800795,-6.3177736,0
              106.7752269,-6.3325789,0
              106.7717937,-6.3387209,0
              106.773167,-6.3469102,0
              106.7697338,-6.3564643,0
              106.7580608,-6.362606,0
              106.7168621,-6.3612412,0
            </coordinates>
          </LinearRing>
        </outerBoundaryIs>
      </Polygon>
    </Placemark>
  </Document>
</kml>
